[{"OBJECT_NAME":"STARLINK-31296","OBJECT_ID":"2024-020D","EPOCH":"2025-09-20T14:36:20.763360","MEAN_MOTION":15.30185975,"ECCENTRICITY":0.00011938,"INCLINATION":53.162,"RA_OF_ASC_NODE":6.6675,"ARG_OF_PERICENTER":98.2855,"MEAN_ANOMALY":261.8281,"EPHEMERIS_TYPE":0,"CLASSIFICATION_TYPE":"U","NORAD_CAT_ID":58879,"ELEMENT_SET_NO":999,"REV_AT_EPOCH":9239,"BSTAR":2.6643859e-5,"MEAN_MOTION_DOT":4.3e-6,"MEAN_MOTION_DDOT":0},{"OBJECT_NAME":"STARLINK-31328","OBJECT_ID":"2024-020E","EPOCH":"2025-09-20T14:34:50.372544","MEAN_MOTION":15.30189147,"ECCENTRICITY":0.00011823,"INCLINATION":53.1608,"RA_OF_ASC_NODE":17.2253,"ARG_OF_PERICENTER":66.7353,"MEAN_ANOMALY":293.3772,"EPHEMERIS_TYPE":0,"CLASSIFICATION_TYPE":"U","NORAD_CAT_ID":58880,"ELEMENT_SET_NO":999,"REV_AT_EPOCH":9224,"BSTAR":5.9911943e-5,"MEAN_MOTION_DOT":1.415e-5,"MEAN_MOTION_DDOT":0},{"OBJECT_NAME":"STARLINK-31260","OBJECT_ID":"2024-020F","EPOCH":"2025-09-20T16:19:35.464512","MEAN_MOTION":15.30195726,"ECCENTRICITY":0.00012716,"INCLINATION":53.1628,"RA_OF_ASC_NODE":31.9776,"ARG_OF_PERICENTER":75.4635,"MEAN_ANOMALY":284.6507,"EPHEMERIS_TYPE":0,"CLASSIFICATION_TYPE":"U","NORAD_CAT_ID":58881,"ELEMENT_SET_NO":999,"REV_AT_EPOCH":9204,"BSTAR":1.2051798e-5,"MEAN_MOTION_DOT":-2.0e-8,"MEAN_MOTION_DDOT":0},{"OBJECT_NAME":"STARLINK-31323","OBJECT_ID":"2024-020G","EPOCH":"2025-09-20T16:24:08.288064","MEAN_MOTION":15.30178264,"ECCENTRICITY":0.0001017,"INCLINATION":53.1622,"RA_OF_ASC_NODE":31.9931,"ARG_OF_PERICENTER":105.7761,"MEAN_ANOMALY":254.3352,"EPHEMERIS_TYPE":0,"CLASSIFICATION_TYPE":"U","NORAD_CAT_ID":58882,"ELEMENT_SET_NO":999,"REV_AT_EPOCH":9204,"BSTAR":-0.00014848848,"MEAN_MOTION_DOT":-4.751e-5,"MEAN_MOTION_DDOT":0},{"OBJECT_NAME":"STARLINK-31209","OBJECT_ID":"2024-020H","EPOCH":"2025-09-20T16:23:06.778176","MEAN_MOTION":15.29203903,"ECCENTRICITY":9.39e-5,"INCLINATION":53.1625,"RA_OF_ASC_NODE":31.991,"ARG_OF_PERICENTER":83.1002,"MEAN_ANOMALY":277.0105,"EPHEMERIS_TYPE":0,"CLASSIFICATION_TYPE":"U","NORAD_CAT_ID":58883,"ELEMENT_SET_NO":999,"REV_AT_EPOCH":9204,"BSTAR":-1.1283416e-5,"MEAN_MOTION_DOT":-6.79e-6,"MEAN_MOTION_DDOT":0},{"OBJECT_NAME":"STARLINK-31315","OBJECT_ID":"2024-020J","EPOCH":"2025-09-20T22:03:24.943680","MEAN_MOTION":15.3041707,"ECCENTRICITY":0.00011554,"INCLINATION":53.1616,"RA_OF_ASC_NODE":5.6237,"ARG_OF_PERICENTER":103.5394,"MEAN_ANOMALY":256.5736,"EPHEMERIS_TYPE":0,"CLASSIFICATION_TYPE":"U","NORAD_CAT_ID":58884,"ELEMENT_SET_NO":999,"REV_AT_EPOCH":9243,"BSTAR":0.00040514244,"MEAN_MOTION_DOT":0.00011739,"MEAN_MOTION_DDOT":0},{"OBJECT_NAME":"STARLINK-31320","OBJECT_ID":"2024-020L","EPOCH":"2025-09-20T14:59:13.007040","MEAN_MOTION":15.3018796,"ECCENTRICITY":0.00011735,"INCLINATION":53.1624,"RA_OF_ASC_NODE":32.3376,"ARG_OF_PERICENTER":77.7953,"MEAN_ANOMALY":282.3179,"EPHEMERIS_TYPE":0,"CLASSIFICATION_TYPE":"U","NORAD_CAT_ID":58886,"ELEMENT_SET_NO":999,"REV_AT_EPOCH":9203,"BSTAR":3.0745085e-5,"MEAN_MOTION_DOT":5.51e-6,"MEAN_MOTION_DDOT":0},{"OBJECT_NAME":"STARLINK-31321","OBJECT_ID":"2024-020M","EPOCH":"2025-09-20T15:03:45.976608","MEAN_MOTION":15.30197688,"ECCENTRICITY":0.00013127,"INCLINATION":53.1624,"RA_OF_ASC_NODE":32.355,"ARG_OF_PERICENTER":89.7394,"MEAN_ANOMALY":270.3757,"EPHEMERIS_TYPE":0,"CLASSIFICATION_TYPE":"U","NORAD_CAT_ID":58887,"ELEMENT_SET_NO":999,"REV_AT_EPOCH":9319,"BSTAR":5.8906321e-5,"MEAN_MOTION_DOT":1.386e-5,"MEAN_MOTION_DDOT":0},{"OBJECT_NAME":"STARLINK-31007","OBJECT_ID":"2024-020P","EPOCH":"2025-09-20T15:08:19.360896","MEAN_MOTION":15.30190347,"ECCENTRICITY":0.00013522,"INCLINATION":53.1617,"RA_OF_ASC_NODE":32.3739,"ARG_OF_PERICENTER":70.3502,"MEAN_ANOMALY":289.7645,"EPHEMERIS_TYPE":0,"CLASSIFICATION_TYPE":"U","NORAD_CAT_ID":58889,"ELEMENT_SET_NO":999,"REV_AT_EPOCH":9203,"BSTAR":1.4950229e-5,"MEAN_MOTION_DOT":8.3e-7,"MEAN_MOTION_DDOT":0},{"OBJECT_NAME":"STARLINK-31230","OBJECT_ID":"2024-020Q","EPOCH":"2025-09-20T14:55:25.160736","MEAN_MOTION":15.30190627,"ECCENTRICITY":0.00011841,"INCLINATION":53.1618,"RA_OF_ASC_NODE":30.2166,"ARG_OF_PERICENTER":82.9228,"MEAN_ANOMALY":277.1907,"EPHEMERIS_TYPE":0,"CLASSIFICATION_TYPE":"U","NORAD_CAT_ID":58890,"ELEMENT_SET_NO":999,"REV_AT_EPOCH":9206,"BSTAR":6.6584408e-5,"MEAN_MOTION_DOT":1.613e-5,"MEAN_MOTION_DDOT":0},{"OBJECT_NAME":"STARLINK-31245","OBJECT_ID":"2024-020R","EPOCH":"2025-09-20T22:27:58.738464","MEAN_MOTION":15.30199149,"ECCENTRICITY":0.00011803,"INCLINATION":53.162,"RA_OF_ASC_NODE":349.762,"ARG_OF_PERICENTER":99.7969,"MEAN_ANOMALY":260.3165,"EPHEMERIS_TYPE":0,"CLASSIFICATION_TYPE":"U","NORAD_CAT_ID":58891,"ELEMENT_SET_NO":999,"REV_AT_EPOCH":9381,"BSTAR":4.027474e-5,"MEAN_MOTION_DOT":8.34e-6,"MEAN_MOTION_DDOT":0},{"OBJECT_NAME":"STARLINK-31254","OBJECT_ID":"2024-020S","EPOCH":"2025-09-20T15:22:16.826592","MEAN_MOTION":15.31289171,"ECCENTRICITY":0.00011148,"INCLINATION":53.1602,"RA_OF_ASC_NODE":32.4501,"ARG_OF_PERICENTER":10.9195,"MEAN_ANOMALY":349.183,"EPHEMERIS_TYPE":0,"CLASSIFICATION_TYPE":"U","NORAD_CAT_ID":58892,"ELEMENT_SET_NO":999,"REV_AT_EPOCH":9203,"BSTAR":0.0010109268,"MEAN_MOTION_DOT":0.00030735,"MEAN_MOTION_DDOT":0},{"OBJECT_NAME":"STARLINK-31255","OBJECT_ID":"2024-020T","EPOCH":"2025-09-20T15:12:53.667936","MEAN_MOTION":15.30181987,"ECCENTRICITY":0.00012014,"INCLINATION":53.1625,"RA_OF_ASC_NODE":32.3937,"ARG_OF_PERICENTER":78.3153,"MEAN_ANOMALY":281.7983,"EPHEMERIS_TYPE":0,"CLASSIFICATION_TYPE":"U","NORAD_CAT_ID":58893,"ELEMENT_SET_NO":999,"REV_AT_EPOCH":9203,"BSTAR":-4.5550727e-5,"MEAN_MOTION_DOT":-1.707e-5,"MEAN_MOTION_DDOT":0},{"OBJECT_NAME":"STARLINK-31243","OBJECT_ID":"2024-020U","EPOCH":"2025-09-20T15:17:27.222432","MEAN_MOTION":15.30187489,"ECCENTRICITY":0.00012196,"INCLINATION":53.1613,"RA_OF_ASC_NODE":32.4148,"ARG_OF_PERICENTER":80.5341,"MEAN_ANOMALY":279.5798,"EPHEMERIS_TYPE":0,"CLASSIFICATION_TYPE":"U","NORAD_CAT_ID":58894,"ELEMENT_SET_NO":999,"REV_AT_EPOCH":9203,"BSTAR":-3.1373018e-5,"MEAN_MOTION_DOT":-1.288e-5,"MEAN_MOTION_DDOT":0},{"OBJECT_NAME":"STARLINK-31218","OBJECT_ID":"2024-020V","EPOCH":"2025-09-20T15:22:00.133248","MEAN_MOTION":15.30196407,"ECCENTRICITY":0.00011967,"INCLINATION":53.1622,"RA_OF_ASC_NODE":32.4323,"ARG_OF_PERICENTER":80.3079,"MEAN_ANOMALY":279.8057,"EPHEMERIS_TYPE":0,"CLASSIFICATION_TYPE":"U","NORAD_CAT_ID":58895,"ELEMENT_SET_NO":999,"REV_AT_EPOCH":9203,"BSTAR":2.7146837e-5,"MEAN_MOTION_DOT":4.45e-6,"MEAN_MOTION_DDOT":0},{"OBJECT_NAME":"STARLINK-31221","OBJECT_ID":"2024-020W","EPOCH":"2025-09-20T18:00:29.403648","MEAN_MOTION":15.86108254,"ECCENTRICITY":0.00181339,"INCLINATION":53.1333,"RA_OF_ASC_NODE":9.3482,"ARG_OF_PERICENTER":338.0329,"MEAN_ANOMALY":21.9916,"EPHEMERIS_TYPE":0,"CLASSIFICATION_TYPE":"U","NORAD_CAT_ID":58896,"ELEMENT_SET_NO":999,"REV_AT_EPOCH":9236,"BSTAR":0.0010970221,"MEAN_MOTION_DOT":0.00289339,"MEAN_MOTION_DDOT":0}]
