STARLINK-31296          
1 58879U 24020D   25263.60857365  .00000430  00000+0  26644-4 0  9995
2 58879  53.1620   6.6675 0001193  98.2855 261.8281 15.30185975 92392
STARLINK-31328          
1 58880U 24020E   25263.60752746  .00001415  00000+0  59912-4 0  9992
2 58880  53.1608  17.2253 0001182  66.7353 293.3772 15.30189147 92245
STARLINK-31260          
1 58881U 24020F   25263.68027158 -.00000002  00000+0  12052-4 0  9999
2 58881  53.1628  31.9776 0001271  75.4635 284.6507 15.30195726 92047
STARLINK-31323          
1 58882U 24020G   25263.68342926 -.00004751  00000+0 -14849-3 0  9994
2 58882  53.1622  31.9931 0001017 105.7761 254.3352 15.30178264 92040
STARLINK-31209          
1 58883U 24020H   25263.68271734 -.00000679  00000+0 -11283-4 0  9998
2 58883  53.1625  31.9910 0000939  83.1002 277.0105 15.29203903 92045
STARLINK-31315          
1 58884U 24020J   25263.91903870  .00011739  00000+0  40514-3 0  9993
2 58884  53.1616   5.6237 0001155 103.5394 256.5736 15.30417070 92437
STARLINK-31320          
1 58886U 24020L   25263.62445610  .00000551  00000+0  30745-4 0  9992
2 58886  53.1624  32.3376 0001173  77.7953 282.3179 15.30187960 92038
STARLINK-31321          
1 58887U 24020M   25263.62761547  .00001386  00000+0  58906-4 0  9999
2 58887  53.1624  32.3550 0001312  89.7394 270.3757 15.30197688 93195
STARLINK-31007          
1 58889U 24020P   25263.63077964  .00000083  00000+0  14950-4 0  9999
2 58889  53.1617  32.3739 0001352  70.3502 289.7645 15.30190347 92036
STARLINK-31230          
1 58890U 24020Q   25263.62181899  .00001613  00000+0  66584-4 0  9993
2 58890  53.1618  30.2166 0001184  82.9228 277.1907 15.30190627 92063
STARLINK-31245          
1 58891U 24020R   25263.93609651  .00000834  00000+0  40275-4 0  9992
2 58891  53.1620 349.7620 0001180  99.7969 260.3165 15.30199149 93816
STARLINK-31254          
1 58892U 24020S   25263.64047253  .00030735  00000+0  10109-2 0  9999
2 58892  53.1602  32.4501 0001114  10.9195 349.1830 15.31289171 92038
STARLINK-31255          
1 58893U 24020T   25263.63395449 -.00001707  00000+0 -45551-4 0  9992
2 58893  53.1625  32.3937 0001201  78.3153 281.7983 15.30181987 92030
STARLINK-31243          
1 58894U 24020U   25263.63712063 -.00001288  00000+0 -31373-4 0  9999
2 58894  53.1613  32.4148 0001219  80.5341 279.5798 15.30187489 92038
STARLINK-31218          
1 58895U 24020V   25263.64027932  .00000445  00000+0  27147-4 0  9991
2 58895  53.1622  32.4323 0001196  80.3079 279.8057 15.30196407 92035
STARLINK-31221          
1 58896U 24020W   25263.75034032  .00289339  00000+0  10970-2 0  9998
2 58896  53.1333   9.3482 0018133 338.0329  21.9916 15.86108254 92364
